{"type": "FeatureCollection", "features": [ {"type": "Feature", "properties": {"norad_id": 66868, "name": "STARLINK-36108", "group": "last-30-days", "lat": 18.029970205496404, "lon": 95.34620829759595, "alt_km": 343.3987496002155, "timestamp": "2025-12-20T11:30:27.106691+00:00", "meta": {"OBJECT_NAME": "STARLINK-36108", "OBJECT_ID": "2025-281W", "EPOCH": "2025-12-20T04:00:00.999072", "MEAN_MOTION": 15.75425667, "ECCENTRICITY": 0.0001394, "INCLINATION": 43.0007, "RA_OF_ASC_NODE": 76.7997, "ARG_OF_PERICENTER": 276.6222, "MEAN_ANOMALY": 134.6895, "EPHEMERIS_TYPE": 0, "CLASSIFICATION_TYPE": "U", "NORAD_CAT_ID": 66868, "ELEMENT_SET_NO": 999, "REV_AT_EPOCH": 242, "BSTAR": -0.0090445, "MEAN_MOTION_DOT": -0.012689, "MEAN_MOTION_DDOT": 0}, "tle": {"line1": "1 66868U 25281W   25354.16667823 -.01268900  00000+0 -90445-2 0  9991", "line2": "2 66868  43.0007  76.7997 0001394 276.6222 134.6895 15.75425667  2421"}}, "geometry": {"type": "Point", "coordinates": [95.34620829759595, 18.029970205496404]}}, {"type": "Feature", "properties": {"norad_id": 66869, "name": "STARLINK-36092", "group": "last-30-days", "lat": 19.24824036613609, "lon": 96.90339851679151, "alt_km": 343.162671483703, "timestamp": "2025-12-20T11:30:27.106705+00:00", "meta": {"OBJECT_NAME": "STARLINK-36092", "OBJECT_ID": "2025-281X", "EPOCH": "2025-12-20T04:00:00.999072", "MEAN_MOTION": 15.75428372, "ECCENTRICITY": 0.0001291, "INCLINATION": 43.0007, "RA_OF_ASC_NODE": 76.7947, "ARG_OF_PERICENTER": 280.1326, "MEAN_ANOMALY": 133.0962, "EPHEMERIS_TYPE": 0, "CLASSIFICATION_TYPE": "U", "NORAD_CAT_ID": 66869, "ELEMENT_SET_NO": 999, "REV_AT_EPOCH": 262, "BSTAR": -0.0091105, "MEAN_MOTION_DOT": -0.01277302, "MEAN_MOTION_DDOT": 0}, "tle": {"line1": "1 66869U 25281X   25354.16667823 -.01277302  00000+0 -91105-2 0  9992", "line2": "2 66869  43.0007  76.7947 0001291 280.1326 133.0962 15.75428372  2624"}}, "geometry": {"type": "Point", "coordinates": [96.90339851679151, 19.24824036613609]}}, {"type": "Feature", "properties": {"norad_id": 66870, "name": "STARLINK-36114", "group": "last-30-days", "lat": 20.45408921734841, "lon": 98.48551473296814, "alt_km": 342.9998573031353, "timestamp": "2025-12-20T11:30:27.106717+00:00", "meta": {"OBJECT_NAME": "STARLINK-36114", "OBJECT_ID": "2025-281Y", "EPOCH": "2025-12-20T04:00:00.999072", "MEAN_MOTION": 15.7542198, "ECCENTRICITY": 0.0001362, "INCLINATION": 43.0007, "RA_OF_ASC_NODE": 76.79, "ARG_OF_PERICENTER": 281.1564, "MEAN_ANOMALY": 133.9928, "EPHEMERIS_TYPE": 0, "CLASSIFICATION_TYPE": "U", "NORAD_CAT_ID": 66870, "ELEMENT_SET_NO": 999, "REV_AT_EPOCH": 248, "BSTAR": -0.009052, "MEAN_MOTION_DOT": -0.01269648, "MEAN_MOTION_DDOT": 0}, "tle": {"line1": "1 66870U 25281Y   25354.16667823 -.01269648  00000+0 -90520-2 0  9998", "line2": "2 66870  43.0007  76.7900 0001362 281.1564 133.9928 15.75421980  2482"}}, "geometry": {"type": "Point", "coordinates": [98.48551473296814, 20.45408921734841]}}, {"type": "Feature", "properties": {"norad_id": 66871, "name": "STARLINK-36095", "group": "last-30-days", "lat": 21.645050455526412, "lon": 100.0916095742094, "alt_km": 342.90923741879215, "timestamp": "2025-12-20T11:30:27.106727+00:00", "meta": {"OBJECT_NAME": "STARLINK-36095", "OBJECT_ID": "2025-281Z", "EPOCH": "2025-12-20T04:00:00.999072", "MEAN_MOTION": 15.75426999, "ECCENTRICITY": 0.0001312, "INCLINATION": 43.0009, "RA_OF_ASC_NODE": 76.7849, "ARG_OF_PERICENTER": 276.3434, "MEAN_ANOMALY": 140.7192, "EPHEMERIS_TYPE": 0, "CLASSIFICATION_TYPE": "U", "NORAD_CAT_ID": 66871, "ELEMENT_SET_NO": 999, "REV_AT_EPOCH": 262, "BSTAR": -0.0090727, "MEAN_MOTION_DOT": -0.01272483, "MEAN_MOTION_DDOT": 0}, "tle": {"line1": "1 66871U 25281Z   25354.16667823 -.01272483  00000+0 -90727-2 0  9999", "line2": "2 66871  43.0009  76.7849 0001312 276.3434 140.7192 15.75426999  2624"}}, "geometry": {"type": "Point", "coordinates": [100.0916095742094, 21.645050455526412]}}, {"type": "Feature", "properties": {"norad_id": 66872, "name": "STARLINK-36082", "group": "last-30-days", "lat": 22.8208982921974, "lon": 101.72537489161304, "alt_km": 342.6830201911116, "timestamp": "2025-12-20T11:30:27.106737+00:00", "meta": {"OBJECT_NAME": "STARLINK-36082", "OBJECT_ID": "2025-281AA", "EPOCH": "2025-12-20T04:00:00.999072", "MEAN_MOTION": 15.75428329, "ECCENTRICITY": 0.0001328, "INCLINATION": 43.001, "RA_OF_ASC_NODE": 76.7798, "ARG_OF_PERICENTER": 280.6527, "MEAN_ANOMALY": 138.3271, "EPHEMERIS_TYPE": 0, "CLASSIFICATION_TYPE": "U", "NORAD_CAT_ID": 66872, "ELEMENT_SET_NO": 999, "REV_AT_EPOCH": 248, "BSTAR": -0.0091014, "MEAN_MOTION_DOT": -0.01276168, "MEAN_MOTION_DDOT": 0}, "tle": {"line1": "1 66872U 25281AA  25354.16667823 -.01276168  00000+0 -91014-2 0  9994", "line2": "2 66872  43.0010  76.7798 0001328 280.6527 138.3271 15.75428329  2482"}}, "geometry": {"type": "Point", "coordinates": [101.72537489161304, 22.8208982921974]}}, {"type": "Feature", "properties": {"norad_id": 66873, "name": "STARLINK-36128", "group": "last-30-days", "lat": 26.237841815770693, "lon": 106.7992083918767, "alt_km": 342.24401794154255, "timestamp": "2025-12-20T11:30:27.106747+00:00", "meta": {"OBJECT_NAME": "STARLINK-36128", "OBJECT_ID": "2025-281AB", "EPOCH": "2025-12-20T04:00:00.999072", "MEAN_MOTION": 15.75425525, "ECCENTRICITY": 0.0001415, "INCLINATION": 43.0009, "RA_OF_ASC_NODE": 76.7647, "ARG_OF_PERICENTER": 279.8242, "MEAN_ANOMALY": 144.9004, "EPHEMERIS_TYPE": 0, "CLASSIFICATION_TYPE": "U", "NORAD_CAT_ID": 66873, "ELEMENT_SET_NO": 999, "REV_AT_EPOCH": 262, "BSTAR": -0.0089949, "MEAN_MOTION_DOT": -0.01262639, "MEAN_MOTION_DDOT": 0}, "tle": {"line1": "1 66873U 25281AB  25354.16667823 -.01262639  00000+0 -89949-2 0  9997", "line2": "2 66873  43.0009  76.7647 0001415 279.8242 144.9004 15.75425525  2623"}}, "geometry": {"type": "Point", "coordinates": [106.7992083918767, 26.237841815770693]}}, {"type": "Feature", "properties": {"norad_id": 66874, "name": "STARLINK-36129", "group": "last-30-days", "lat": 23.97863183262922, "lon": 103.38623738095248, "alt_km": 342.5549867120262, "timestamp": "2025-12-20T11:30:27.106756+00:00", "meta": {"OBJECT_NAME": "STARLINK-36129", "OBJECT_ID": "2025-281AC", "EPOCH": "2025-12-20T04:00:00.999072", "MEAN_MOTION": 15.75420829, "ECCENTRICITY": 0.0001341, "INCLINATION": 43.0009, "RA_OF_ASC_NODE": 76.7748, "ARG_OF_PERICENTER": 279.5958, "MEAN_ANOMALY": 141.3054, "EPHEMERIS_TYPE": 0, "CLASSIFICATION_TYPE": "U", "NORAD_CAT_ID": 66874, "ELEMENT_SET_NO": 999, "REV_AT_EPOCH": 262, "BSTAR": -0.0090444, "MEAN_MOTION_DOT": -0.01268613, "MEAN_MOTION_DDOT": 0}, "tle": {"line1": "1 66874U 25281AC  25354.16667823 -.01268613  00000+0 -90444-2 0  9998", "line2": "2 66874  43.0009  76.7748 0001341 279.5958 141.3054 15.75420829  2623"}}, "geometry": {"type": "Point", "coordinates": [103.38623738095248, 23.97863183262922]}}, {"type": "Feature", "properties": {"norad_id": 66875, "name": "STARLINK-36053", "group": "last-30-days", "lat": 27.338348813105036, "lon": 108.55719606656459, "alt_km": 342.15635196636595, "timestamp": "2025-12-20T11:30:27.106766+00:00", "meta": {"OBJECT_NAME": "STARLINK-36053", "OBJECT_ID": "2025-281AD", "EPOCH": "2025-12-20T04:00:00.999072", "MEAN_MOTION": 15.75432933, "ECCENTRICITY": 0.0001251, "INCLINATION": 43.0011, "RA_OF_ASC_NODE": 76.7594, "ARG_OF_PERICENTER": 273.6293, "MEAN_ANOMALY": 153.0165, "EPHEMERIS_TYPE": 0, "CLASSIFICATION_TYPE": "U", "NORAD_CAT_ID": 66875, "ELEMENT_SET_NO": 999, "REV_AT_EPOCH": 262, "BSTAR": -0.0091398, "MEAN_MOTION_DOT": -0.01281197, "MEAN_MOTION_DDOT": 0}, "tle": {"line1": "1 66875U 25281AD  25354.16667823 -.01281197  00000+0 -91398-2 0  9990", "line2": "2 66875  43.0011  76.7594 0001251 273.6293 153.0165 15.75432933  2625"}}, "geometry": {"type": "Point", "coordinates": [108.55719606656459, 27.338348813105036]}}, {"type": "Feature", "properties": {"norad_id": 66876, "name": "STARLINK-35702", "group": "last-30-days", "lat": 25.116653809757604, "lon": 105.07479882145307, "alt_km": 342.3751946568891, "timestamp": "2025-12-20T11:30:27.106779+00:00", "meta": {"OBJECT_NAME": "STARLINK-35702", "OBJECT_ID": "2025-281AE", "EPOCH": "2025-12-20T04:00:00.999072", "MEAN_MOTION": 15.75427593, "ECCENTRICITY": 0.0001348, "INCLINATION": 43.001, "RA_OF_ASC_NODE": 76.7699, "ARG_OF_PERICENTER": 280.103, "MEAN_ANOMALY": 142.7039, "EPHEMERIS_TYPE": 0, "CLASSIFICATION_TYPE": "U", "NORAD_CAT_ID": 66876, "ELEMENT_SET_NO": 999, "REV_AT_EPOCH": 262, "BSTAR": -0.0090399, "MEAN_MOTION_DOT": -0.01268398, "MEAN_MOTION_DDOT": 0}, "tle": {"line1": "1 66876U 25281AE  25354.16667823 -.01268398  00000+0 -90399-2 0  9999", "line2": "2 66876  43.0010  76.7699 0001348 280.1030 142.7039 15.75427593  2621"}}, "geometry": {"type": "Point", "coordinates": [105.07479882145307, 25.116653809757604]}}, {"type": "Feature", "properties": {"norad_id": 66877, "name": "ZQ-3 R/B", "group": "last-30-days", "lat": 7.5034537637147105, "lon": -157.23180261123585, "alt_km": 386.6547899920024, "timestamp": "2025-12-20T11:30:27.106789+00:00", "meta": {"OBJECT_NAME": "ZQ-3 R/B", "OBJECT_ID": "2025-282A", "EPOCH": "2025-12-20T02:32:21.094944", "MEAN_MOTION": 14.74483052, "ECCENTRICITY": 0.0717024, "INCLINATION": 56.9493, "RA_OF_ASC_NODE": 29.1516, "ARG_OF_PERICENTER": 232.8786, "MEAN_ANOMALY": 120.4648, "EPHEMERIS_TYPE": 0, "CLASSIFICATION_TYPE": "U", "NORAD_CAT_ID": 66877, "ELEMENT_SET_NO": 999, "REV_AT_EPOCH": 247, "BSTAR": 0.0001704, "MEAN_MOTION_DOT": 0.00941593, "MEAN_MOTION_DDOT": 7.7461e-06}, "tle": {"line1": "1 66877U 25282A   25354.10579971  .00941593  77461-5  17040-3 0  9997", "line2": "2 66877  56.9493  29.1516 0717024 232.8786 120.4648 14.74483052  2479"}}, "geometry": {"type": "Point", "coordinates": [-157.23180261123585, 7.5034537637147105]}}]}